ASTROCAST-0403          
1 55111U 23001DG  26068.82333059  .00013959  00000+0  51317-3 0  9990
2 55111  97.5604 161.3228 0004771 338.0704  22.0330 15.28004949129377
STARLINK-31948          
1 59941U 24106V   26068.06481903  .00000949  00000+0  44005-4 0  9992
2 59941  42.9926 332.8110 0001731  11.3368 348.7522 15.27573686100466
